ONEWEB-0497             
1 54116U 22138D   25238.90541200 -.00000043  00000+0 -13990-3 0  9997
2 54116  87.9274   3.4627 0001769  95.9406 264.1928 13.19724946137991
ONEWEB-0499             
1 54117U 22138E   25238.88802094 -.00000061  00000+0 -18348-3 0  9998
2 54117  87.9271   3.4842 0002070  90.2103 269.9267 13.19726967138003
ONEWEB-0500             
1 54118U 22138F   25238.89119604 -.00000039  00000+0 -13021-3 0  9996
2 54118  87.9277   3.4684 0001772 101.1017 259.0315 13.19722035138015
ONEWEB-0501             
1 54119U 22138G   25238.84538527  .00000035  00000+0  55025-4 0  9996
2 54119  87.9275   3.4705 0001737  84.9723 275.1608 13.19726652137989
ONEWEB-0502             
1 54120U 22138H   25238.90697710  .00000015  00000+0  51429-5 0  9998
2 54120  87.9272   3.4417 0001882  89.3288 270.8060 13.19726713138011
ONEWEB-0503             
1 54121U 22138J   25238.89592961 -.00000031  00000+0 -10939-3 0  9998
2 54121  87.9272   3.4483 0002132  96.9986 263.1390 13.19724150138006
ONEWEB-0504             
1 54122U 22138K   25238.88327889 -.00000041  00000+0 -13516-3 0  9998
2 54122  87.9275   3.4669 0001922  88.7915 271.3438 13.19726817138010
ONEWEB-0505             
1 54123U 22138L   25238.88013821 -.00000041  00000+0 -13515-3 0  9996
2 54123  87.9273   3.4564 0001819  79.8665 280.2672 13.19725190137999
ONEWEB-0506             
1 54124U 22138M   25238.85484565 -.00000044  00000+0 -14099-3 0  9992
2 54124  87.9275   3.4584 0001784  91.8797 268.2540 13.19726896137988
ONEWEB-0507             
1 54125U 22138N   25238.87538279 -.00000031  00000+0 -10881-3 0  9998
2 54125  87.9264   3.5062 0001697  90.9578 269.1749 13.19725933138038
ONEWEB-0508             
1 54126U 22138P   25238.87221980 -.00000034  00000+0 -11755-3 0  9991
2 54126  87.9273   3.4909 0001585  86.1071 274.0243 13.19726696138018
ONEWEB-0509             
1 54127U 22138Q   25238.84697245  .00000009  00000+0 -10705-4 0  9996
2 54127  87.9276   3.4579 0001799  93.5864 266.5474 13.19725083137980
ONEWEB-0510             
1 54128U 22138R   25238.81636062 -.00000034  00000+0 -11622-3 0  9991
2 54128  87.9298 333.1098 0002188 113.5273 246.6090 13.20768978140422
ONEWEB-0511             
1 54129U 22138S   25238.84379971  .00000049  00000+0  90000-4 0  9990
2 54129  87.9274   3.4637 0002099  95.3094 264.8278 13.19724379138019
ONEWEB-0512             
1 54130U 22138T   25238.83590838  .00000094  00000+0  20127-3 0  9990
2 54130  87.9258   3.5070 0001875  84.9835 275.1512 13.19724524137986
ONEWEB-0513             
1 54131U 22138U   25238.88968570 -.00000042  00000+0 -13690-3 0  9990
2 54131  87.9281   3.4563 0002187  81.9879 278.1502 13.20312239137880
ONEWEB-0514             
1 54132U 22138V   25238.85170539 -.00000007  00000+0 -48606-4 0  9995
2 54132  87.9275   3.4749 0001885 101.0393 259.0952 13.19725537138008
