[{"OBJECT_NAME":"ONEWEB-0497","OBJECT_ID":"2022-138D","EPOCH":"2025-08-26T21:43:47.596800","MEAN_MOTION":13.19724946,"ECCENTRICITY":0.0001769,"INCLINATION":87.9274,"RA_OF_ASC_NODE":3.4627,"ARG_OF_PERICENTER":95.9406,"MEAN_ANOMALY":264.1928,"EPHEMERIS_TYPE":0,"CLASSIFICATION_TYPE":"U","NORAD_CAT_ID":54116,"ELEMENT_SET_NO":999,"REV_AT_EPOCH":13799,"BSTAR":-0.00013990241,"MEAN_MOTION_DOT":-4.3e-7,"MEAN_MOTION_DDOT":0},{"OBJECT_NAME":"ONEWEB-0499","OBJECT_ID":"2022-138E","EPOCH":"2025-08-26T21:18:45.009216","MEAN_MOTION":13.19726967,"ECCENTRICITY":0.00020701,"INCLINATION":87.9271,"RA_OF_ASC_NODE":3.4842,"ARG_OF_PERICENTER":90.2103,"MEAN_ANOMALY":269.9267,"EPHEMERIS_TYPE":0,"CLASSIFICATION_TYPE":"U","NORAD_CAT_ID":54117,"ELEMENT_SET_NO":999,"REV_AT_EPOCH":13800,"BSTAR":-0.00018347597,"MEAN_MOTION_DOT":-6.1e-7,"MEAN_MOTION_DDOT":0},{"OBJECT_NAME":"ONEWEB-0500","OBJECT_ID":"2022-138F","EPOCH":"2025-08-26T21:23:19.337856","MEAN_MOTION":13.19722035,"ECCENTRICITY":0.00017729,"INCLINATION":87.9277,"RA_OF_ASC_NODE":3.4684,"ARG_OF_PERICENTER":101.1017,"MEAN_ANOMALY":259.0315,"EPHEMERIS_TYPE":0,"CLASSIFICATION_TYPE":"U","NORAD_CAT_ID":54118,"ELEMENT_SET_NO":999,"REV_AT_EPOCH":13801,"BSTAR":-0.00013020546,"MEAN_MOTION_DOT":-3.9e-7,"MEAN_MOTION_DDOT":0},{"OBJECT_NAME":"ONEWEB-0501","OBJECT_ID":"2022-138G","EPOCH":"2025-08-26T20:17:21.287328","MEAN_MOTION":13.19726652,"ECCENTRICITY":0.0001737,"INCLINATION":87.9275,"RA_OF_ASC_NODE":3.4705,"ARG_OF_PERICENTER":84.9723,"MEAN_ANOMALY":275.1608,"EPHEMERIS_TYPE":0,"CLASSIFICATION_TYPE":"U","NORAD_CAT_ID":54119,"ELEMENT_SET_NO":999,"REV_AT_EPOCH":13798,"BSTAR":5.5024763e-5,"MEAN_MOTION_DOT":3.5e-7,"MEAN_MOTION_DDOT":0},{"OBJECT_NAME":"ONEWEB-0502","OBJECT_ID":"2022-138H","EPOCH":"2025-08-26T21:46:02.821440","MEAN_MOTION":13.19726713,"ECCENTRICITY":0.00018821,"INCLINATION":87.9272,"RA_OF_ASC_NODE":3.4417,"ARG_OF_PERICENTER":89.3288,"MEAN_ANOMALY":270.806,"EPHEMERIS_TYPE":0,"CLASSIFICATION_TYPE":"U","NORAD_CAT_ID":54120,"ELEMENT_SET_NO":999,"REV_AT_EPOCH":13801,"BSTAR":5.142921e-6,"MEAN_MOTION_DOT":1.5e-7,"MEAN_MOTION_DDOT":0},{"OBJECT_NAME":"ONEWEB-0503","OBJECT_ID":"2022-138J","EPOCH":"2025-08-26T21:30:08.318304","MEAN_MOTION":13.1972415,"ECCENTRICITY":0.00021327,"INCLINATION":87.9272,"RA_OF_ASC_NODE":3.4483,"ARG_OF_PERICENTER":96.9986,"MEAN_ANOMALY":263.139,"EPHEMERIS_TYPE":0,"CLASSIFICATION_TYPE":"U","NORAD_CAT_ID":54121,"ELEMENT_SET_NO":999,"REV_AT_EPOCH":13800,"BSTAR":-0.0001093935,"MEAN_MOTION_DOT":-3.1e-7,"MEAN_MOTION_DDOT":0},{"OBJECT_NAME":"ONEWEB-0504","OBJECT_ID":"2022-138K","EPOCH":"2025-08-26T21:11:55.296096","MEAN_MOTION":13.19726817,"ECCENTRICITY":0.00019226,"INCLINATION":87.9275,"RA_OF_ASC_NODE":3.4669,"ARG_OF_PERICENTER":88.7915,"MEAN_ANOMALY":271.3438,"EPHEMERIS_TYPE":0,"CLASSIFICATION_TYPE":"U","NORAD_CAT_ID":54122,"ELEMENT_SET_NO":999,"REV_AT_EPOCH":13801,"BSTAR":-0.00013516331,"MEAN_MOTION_DOT":-4.1e-7,"MEAN_MOTION_DDOT":0},{"OBJECT_NAME":"ONEWEB-0505","OBJECT_ID":"2022-138L","EPOCH":"2025-08-26T21:07:23.941344","MEAN_MOTION":13.1972519,"ECCENTRICITY":0.00018192,"INCLINATION":87.9273,"RA_OF_ASC_NODE":3.4564,"ARG_OF_PERICENTER":79.8665,"MEAN_ANOMALY":280.2672,"EPHEMERIS_TYPE":0,"CLASSIFICATION_TYPE":"U","NORAD_CAT_ID":54123,"ELEMENT_SET_NO":999,"REV_AT_EPOCH":13799,"BSTAR":-0.00013515051,"MEAN_MOTION_DOT":-4.1e-7,"MEAN_MOTION_DDOT":0},{"OBJECT_NAME":"ONEWEB-0506","OBJECT_ID":"2022-138M","EPOCH":"2025-08-26T20:30:58.664160","MEAN_MOTION":13.19726896,"ECCENTRICITY":0.00017846,"INCLINATION":87.9275,"RA_OF_ASC_NODE":3.4584,"ARG_OF_PERICENTER":91.8797,"MEAN_ANOMALY":268.254,"EPHEMERIS_TYPE":0,"CLASSIFICATION_TYPE":"U","NORAD_CAT_ID":54124,"ELEMENT_SET_NO":999,"REV_AT_EPOCH":13798,"BSTAR":-0.00014098867,"MEAN_MOTION_DOT":-4.4e-7,"MEAN_MOTION_DDOT":0},{"OBJECT_NAME":"ONEWEB-0507","OBJECT_ID":"2022-138N","EPOCH":"2025-08-26T21:00:33.073056","MEAN_MOTION":13.19725933,"ECCENTRICITY":0.00016979,"INCLINATION":87.9264,"RA_OF_ASC_NODE":3.5062,"ARG_OF_PERICENTER":90.9578,"MEAN_ANOMALY":269.1749,"EPHEMERIS_TYPE":0,"CLASSIFICATION_TYPE":"U","NORAD_CAT_ID":54125,"ELEMENT_SET_NO":999,"REV_AT_EPOCH":13803,"BSTAR":-0.00010880996,"MEAN_MOTION_DOT":-3.1e-7,"MEAN_MOTION_DDOT":0},{"OBJECT_NAME":"ONEWEB-0508","OBJECT_ID":"2022-138P","EPOCH":"2025-08-26T20:55:59.790720","MEAN_MOTION":13.19726696,"ECCENTRICITY":0.00015851,"INCLINATION":87.9273,"RA_OF_ASC_NODE":3.4909,"ARG_OF_PERICENTER":86.1071,"MEAN_ANOMALY":274.0243,"EPHEMERIS_TYPE":0,"CLASSIFICATION_TYPE":"U","NORAD_CAT_ID":54126,"ELEMENT_SET_NO":999,"REV_AT_EPOCH":13801,"BSTAR":-0.00011754827,"MEAN_MOTION_DOT":-3.4e-7,"MEAN_MOTION_DDOT":0},{"OBJECT_NAME":"ONEWEB-0509","OBJECT_ID":"2022-138Q","EPOCH":"2025-08-26T20:19:38.419680","MEAN_MOTION":13.19725083,"ECCENTRICITY":0.00017995,"INCLINATION":87.9276,"RA_OF_ASC_NODE":3.4579,"ARG_OF_PERICENTER":93.5864,"MEAN_ANOMALY":266.5474,"EPHEMERIS_TYPE":0,"CLASSIFICATION_TYPE":"U","NORAD_CAT_ID":54127,"ELEMENT_SET_NO":999,"REV_AT_EPOCH":13798,"BSTAR":-1.0705343e-5,"MEAN_MOTION_DOT":9.0e-8,"MEAN_MOTION_DDOT":0},{"OBJECT_NAME":"ONEWEB-0510","OBJECT_ID":"2022-138R","EPOCH":"2025-08-26T19:35:33.557568","MEAN_MOTION":13.20768978,"ECCENTRICITY":0.0002188,"INCLINATION":87.9298,"RA_OF_ASC_NODE":333.1098,"ARG_OF_PERICENTER":113.5273,"MEAN_ANOMALY":246.609,"EPHEMERIS_TYPE":0,"CLASSIFICATION_TYPE":"U","NORAD_CAT_ID":54128,"ELEMENT_SET_NO":999,"REV_AT_EPOCH":14042,"BSTAR":-0.00011622324,"MEAN_MOTION_DOT":-3.4e-7,"MEAN_MOTION_DDOT":0},{"OBJECT_NAME":"ONEWEB-0511","OBJECT_ID":"2022-138S","EPOCH":"2025-08-26T20:15:04.294944","MEAN_MOTION":13.19724379,"ECCENTRICITY":0.0002099,"INCLINATION":87.9274,"RA_OF_ASC_NODE":3.4637,"ARG_OF_PERICENTER":95.3094,"MEAN_ANOMALY":264.8278,"EPHEMERIS_TYPE":0,"CLASSIFICATION_TYPE":"U","NORAD_CAT_ID":54129,"ELEMENT_SET_NO":999,"REV_AT_EPOCH":13801,"BSTAR":8.9999813e-5,"MEAN_MOTION_DOT":4.9e-7,"MEAN_MOTION_DDOT":0},{"OBJECT_NAME":"ONEWEB-0512","OBJECT_ID":"2022-138T","EPOCH":"2025-08-26T20:03:42.484032","MEAN_MOTION":13.19724524,"ECCENTRICITY":0.00018758,"INCLINATION":87.9258,"RA_OF_ASC_NODE":3.507,"ARG_OF_PERICENTER":84.9835,"MEAN_ANOMALY":275.1512,"EPHEMERIS_TYPE":0,"CLASSIFICATION_TYPE":"U","NORAD_CAT_ID":54130,"ELEMENT_SET_NO":999,"REV_AT_EPOCH":13798,"BSTAR":0.00020127129,"MEAN_MOTION_DOT":9.4e-7,"MEAN_MOTION_DDOT":0},{"OBJECT_NAME":"ONEWEB-0513","OBJECT_ID":"2022-138U","EPOCH":"2025-08-26T21:21:08.844480","MEAN_MOTION":13.20312239,"ECCENTRICITY":0.00021877,"INCLINATION":87.9281,"RA_OF_ASC_NODE":3.4563,"ARG_OF_PERICENTER":81.9879,"MEAN_ANOMALY":278.1502,"EPHEMERIS_TYPE":0,"CLASSIFICATION_TYPE":"U","NORAD_CAT_ID":54131,"ELEMENT_SET_NO":999,"REV_AT_EPOCH":13788,"BSTAR":-0.00013690222,"MEAN_MOTION_DOT":-4.2e-7,"MEAN_MOTION_DDOT":0},{"OBJECT_NAME":"ONEWEB-0514","OBJECT_ID":"2022-138V","EPOCH":"2025-08-26T20:26:27.345696","MEAN_MOTION":13.19725537,"ECCENTRICITY":0.00018852,"INCLINATION":87.9275,"RA_OF_ASC_NODE":3.4749,"ARG_OF_PERICENTER":101.0393,"MEAN_ANOMALY":259.0952,"EPHEMERIS_TYPE":0,"CLASSIFICATION_TYPE":"U","NORAD_CAT_ID":54132,"ELEMENT_SET_NO":999,"REV_AT_EPOCH":13800,"BSTAR":-4.8605951e-5,"MEAN_MOTION_DOT":-7.0e-8,"MEAN_MOTION_DDOT":0}]
